{"type": "FeatureCollection", "features": [{"type": "Feature", "geometry": {"type": "Point", "coordinates": [79.282298, 19.373443]}, "properties": {"SchoolCode": "51901", "SchoolName": "TGSWREIS ASIFABAD-KOMURABHEEM -(B)", "DistrictName": "Komurambheem Asifabad", "DistrictGeo": "Kumurambheem Asifabad"}}, {"type": "Feature", "geometry": {"type": "Point", "coordinates": [78.536657, 19.657826]}, "properties": {"SchoolCode": "51902", "SchoolName": "TGSWREIS ADILABAD-ADILABAD-(G) (COE)", "DistrictName": "Adilabad", "DistrictGeo": "Adilabad"}}, {"type": "Feature", "geometry": {"type": "Point", "coordinates": [79.567778, 19.467222]}, "properties": {"SchoolCode": "51903", "SchoolName": "TGSWREIS SIRPUR T [B]-KOMURABHEEM -(B)", "DistrictName": "Komurambheem Asifabad", "DistrictGeo": "Kumurambheem Asifabad"}}, {"type": "Feature", "geometry": {"type": "Point", "coordinates": [77.928032, 18.994543]}, "properties": {"SchoolCode": "51904", "SchoolName": "TGSWREIS MUDHOLE-NIRMAL-(B)", "DistrictName": "Nirmal", "DistrictGeo": "Nirmal"}}, {"type": "Feature", "geometry": {"type": "Point", "coordinates": [78.33594, 19.34278]}, "properties": {"SchoolCode": "51905", "SchoolName": "TGSWREIS BOATH-ADILABAD-(G)", "DistrictName": "Adilabad", "DistrictGeo": "Adilabad"}}, {"type": "Feature", "geometry": {"type": "Point", "coordinates": [79.1979316, 18.896769]}, "properties": {"SchoolCode": "51906", "SchoolName": "TGSWREIS LUXETTIPET-MANCHERIAL-(G)", "DistrictName": "Mancherial", "DistrictGeo": "Mancherial"}}, {"type": "Feature", "geometry": {"type": "Point", "coordinates": [79.5019518694974, 19.0802633586162]}, "properties": {"SchoolCode": "51910", "SchoolName": "TGSWREIS BELLAMPALLI-MANCHERIAL-(G)", "DistrictName": "Mancherial", "DistrictGeo": "Mancherial"}}, {"type": "Feature", "geometry": {"type": "Point", "coordinates": [79.7940205, 18.8464602]}, "properties": {"SchoolCode": "51921", "SchoolName": "TGSWREIS CHENNUR (G) (NEW)-MANCHERIAL-(G)", "DistrictName": "Mancherial", "DistrictGeo": "Mancherial"}}, {"type": "Feature", "geometry": {"type": "Point", "coordinates": [78.219963, 17.040778]}, "properties": {"SchoolCode": "51922", "SchoolName": "TGSWREIS Kotapalli(B) -MANCHERIAL-(B)", "DistrictName": "Mancherial", "DistrictGeo": "Mancherial"}}, {"type": "Feature", "geometry": {"type": "Point", "coordinates": [79.470167, 18.934444]}, "properties": {"SchoolCode": "51923", "SchoolName": "TGSWREIS Mandamarri(G)-MANCHERIAL-(G)", "DistrictName": "Mancherial", "DistrictGeo": "Mancherial"}}, {"type": "Feature", "geometry": {"type": "Point", "coordinates": [79.505976, 19.082878]}, "properties": {"SchoolCode": "51924", "SchoolName": "TGSWREIS Kasipet(B)-MANCHERIAL-(B)", "DistrictName": "Mancherial", "DistrictGeo": "Mancherial"}}, {"type": "Feature", "geometry": {"type": "Point", "coordinates": [79.379222, 18.868389]}, "properties": {"SchoolCode": "51926", "SchoolName": "TGSWREIS Mancherial (B)-MANCHERIAL-(B)", "DistrictName": "Mancherial", "DistrictGeo": "Mancherial"}}, {"type": "Feature", "geometry": {"type": "Point", "coordinates": [78.4524591, 19.4127724]}, "properties": {"SchoolCode": "51928", "SchoolName": "TGSWREIS Ichoda (B)-ADILABAD-(B)", "DistrictName": "Adilabad", "DistrictGeo": "Adilabad"}}, {"type": "Feature", "geometry": {"type": "Point", "coordinates": [79.4457886249999, 18.8619595]}, "properties": {"SchoolCode": "51930", "SchoolName": "TGSWREIS Manchiryala-MANCHERIAL-DEGREE", "DistrictName": "Mancherial", "DistrictGeo": "Mancherial"}}, {"type": "Feature", "geometry": {"type": "Point", "coordinates": [78.510333, 19.668806]}, "properties": {"SchoolCode": "51931", "SchoolName": "TGSWREIS Adilabad-ADILABAD-DEGREE", "DistrictName": "Adilabad", "DistrictGeo": "Adilabad"}}, {"type": "Feature", "geometry": {"type": "Point", "coordinates": [79.504597, 19.075348]}, "properties": {"SchoolCode": "51920", "SchoolName": "TGSWREIS BELLAMPALLI (B) (NEW)-MANCHERIAL-(B) (COE", "DistrictName": "Mancherial", "DistrictGeo": "Mancherial"}}, {"type": "Feature", "geometry": {"type": "Point", "coordinates": [80.7796, 17.3755]}, "properties": {"SchoolCode": "52201", "SchoolName": "TGSWREIS ANAPUREDDYPALLI-BHADRADRI-(B)", "DistrictName": "Bhadradri Kothagudem", "DistrictGeo": "Bhadradri Kothagudem"}}, {"type": "Feature", "geometry": {"type": "Point", "coordinates": [81.0165577, 17.2520354]}, "properties": {"SchoolCode": "52203", "SchoolName": "TGSWREIS DAMMAPET-BHADRADRI-(B)", "DistrictName": "Bhadradri Kothagudem", "DistrictGeo": "Bhadradri Kothagudem"}}, {"type": "Feature", "geometry": {"type": "Point", "coordinates": [80.63706, 17.60253]}, "properties": {"SchoolCode": "52205", "SchoolName": "TGSWREIS PALONCHA [B]-BHADRADRI-(B) (COE)", "DistrictName": "Bhadradri Kothagudem", "DistrictGeo": "Bhadradri Kothagudem"}}, {"type": "Feature", "geometry": {"type": "Point", "coordinates": [80.696404, 17.60243]}, "properties": {"SchoolCode": "52209", "SchoolName": "TGSWREIS PALAVANCHA [G] -BHADRADRI-(G)", "DistrictName": "Bhadradri Kothagudem", "DistrictGeo": "Bhadradri Kothagudem"}}, {"type": "Feature", "geometry": {"type": "Point", "coordinates": [80.820217, 17.502851]}, "properties": {"SchoolCode": "52210", "SchoolName": "TGSWREIS MULKALAPALLY -BHADRADRI-(G)", "DistrictName": "Bhadradri Kothagudem", "DistrictGeo": "Bhadradri Kothagudem"}}, {"type": "Feature", "geometry": {"type": "Point", "coordinates": [80.7060213, 17.1765654]}, "properties": {"SchoolCode": "52211", "SchoolName": "TGSWREIS ADAVIMALLELA -BHADRADRI-(G)", "DistrictName": "Khammam", "DistrictGeo": "Khammam"}}, {"type": "Feature", "geometry": {"type": "Point", "coordinates": [80.700278, 17.60625]}, "properties": {"SchoolCode": "52218", "SchoolName": "TGSWREIS Manuguru (B)-BHADRADRI-(B)", "DistrictName": "Bhadradri Kothagudem", "DistrictGeo": "Bhadradri Kothagudem"}}, {"type": "Feature", "geometry": {"type": "Point", "coordinates": [80.7175124, 17.5973808]}, "properties": {"SchoolCode": "52219", "SchoolName": "TGSWREIS Bhadrachalam(G)-BHADRADRI-(G)", "DistrictName": "Bhadradri Kothagudem", "DistrictGeo": "Bhadradri Kothagudem"}}, {"type": "Feature", "geometry": {"type": "Point", "coordinates": [80.2819, 17.5165]}, "properties": {"SchoolCode": "52221", "SchoolName": "TGSWREIS Yellandu(G)-BHADRADRI-(G)", "DistrictName": "Bhadradri Kothagudem", "DistrictGeo": "Bhadradri Kothagudem"}}, {"type": "Feature", "geometry": {"type": "Point", "coordinates": [80.687951, 17.611139]}, "properties": {"SchoolCode": "52223", "SchoolName": "TGSWREIS Kothagudem-BHADRADRI (KOTHAGUDEM)-DEGREE", "DistrictName": "Bhadradri Kothagudem", "DistrictGeo": "Bhadradri Kothagudem"}}, {"type": "Feature", "geometry": {"type": "Point", "coordinates": [78.3286219, 18.9792613]}, "properties": {"SchoolCode": "51908", "SchoolName": "TGSWREIS NIRMAL-NIRMAL-(G)", "DistrictName": "Nirmal", "DistrictGeo": "Nirmal"}}, {"type": "Feature", "geometry": {"type": "Point", "coordinates": [78.729177, 19.073715]}, "properties": {"SchoolCode": "51909", "SchoolName": "TGSWREIS KADDAM-NIRMAL-(G)", "DistrictName": "Nirmal", "DistrictGeo": "Nirmal"}}, {"type": "Feature", "geometry": {"type": "Point", "coordinates": [78.321, 19.3473]}, "properties": {"SchoolCode": "51911", "SchoolName": "TGSWREIS SIRPUR {G} -KOMURABHEEM -(G)", "DistrictName": "Komurambheem Asifabad", "DistrictGeo": "Kumurambheem Asifabad"}}, {"type": "Feature", "geometry": {"type": "Point", "coordinates": [78.3432895648069, 19.2309771062379]}, "properties": {"SchoolCode": "51912", "SchoolName": "TGSWREIS JAM-NIRMAL-(G)", "DistrictName": "Nirmal", "DistrictGeo": "Nirmal"}}, {"type": "Feature", "geometry": {"type": "Point", "coordinates": [79.567973, 19.467889]}, "properties": {"SchoolCode": "51925", "SchoolName": "TGSWREIS Kagaznagar(G)-KOMURABHEEM -(G)", "DistrictName": "Komurambheem Asifabad", "DistrictGeo": "Kumurambheem Asifabad"}}, {"type": "Feature", "geometry": {"type": "Point", "coordinates": [77.968487, 19.100066]}, "properties": {"SchoolCode": "51927", "SchoolName": "TGSWREIS Bhainsa(G)-NIRMAL-(G)", "DistrictName": "Nirmal", "DistrictGeo": "Nirmal"}}, {"type": "Feature", "geometry": {"type": "Point", "coordinates": [79.4135, 19.257944]}, "properties": {"SchoolCode": "51929", "SchoolName": "TGSWREIS Rebbana(G)-KOMURABHEEM -(G)", "DistrictName": "Komurambheem Asifabad", "DistrictGeo": "Kumurambheem Asifabad"}}, {"type": "Feature", "geometry": {"type": "Point", "coordinates": [78.343, 19.0964]}, "properties": {"SchoolCode": "51932", "SchoolName": "TGSWREIS Nirmal-NIRMAL-DEGREE", "DistrictName": "Nirmal", "DistrictGeo": "Nirmal"}}, {"type": "Feature", "geometry": {"type": "Point", "coordinates": [78.3889708, 17.3941371]}, "properties": {"SchoolCode": "61601", "SchoolName": "TGSWREIS SHAIKPET-HYDERABAD (WEST)-(B) (COE)", "DistrictName": "Hyderabad", "DistrictGeo": "Hyderabad"}}, {"type": "Feature", "geometry": {"type": "Point", "coordinates": [78.5219311, 17.4498213]}, "properties": {"SchoolCode": "61602", "SchoolName": "TGSWREIS MAHENDRAHILLS-HYDERABAD (EAST)-(G) (COE)", "DistrictName": "Hyderabad", "DistrictGeo": "Hyderabad"}}, {"type": "Feature", "geometry": {"type": "Point", "coordinates": [78.469318, 17.3279646]}, "properties": {"SchoolCode": "61604", "SchoolName": "TGSWREIS R.K.PURAM, HYDERABAD-HYDERABAD (EAST)-(G)", "DistrictName": "Hyderabad", "DistrictGeo": "Hyderabad"}}, {"type": "Feature", "geometry": {"type": "Point", "coordinates": [78.7090526, 17.5491623]}, "properties": {"SchoolCode": "61520", "SchoolName": "TGSWREIS Shamirpet(B)-MEDCHAL-(B)", "DistrictName": "Medchal Malkajgiri", "DistrictGeo": "Medchal_Malkajgiri"}}, {"type": "Feature", "geometry": {"type": "Point", "coordinates": [78.7165938, 17.4324368]}, "properties": {"SchoolCode": "61521", "SchoolName": "TGSWREIS Malkajgiri(G)-MEDCHAL-(G)", "DistrictName": "Medchal Malkajgiri", "DistrictGeo": "Medchal_Malkajgiri"}}, {"type": "Feature", "geometry": {"type": "Point", "coordinates": [78.699472, 17.447012]}, "properties": {"SchoolCode": "61524", "SchoolName": "TGSWREIS Jagadgirigutta (G)-MEDCHAL-(G)", "DistrictName": "Medchal Malkajgiri", "DistrictGeo": "Medchal_Malkajgiri"}}, {"type": "Feature", "geometry": {"type": "Point", "coordinates": [78.716594, 17.4324368]}, "properties": {"SchoolCode": "61525", "SchoolName": "TGSWREIS Uppal(B)-MEDCHAL-(B)", "DistrictName": "Medchal Malkajgiri", "DistrictGeo": "Medchal_Malkajgiri"}}, {"type": "Feature", "geometry": {"type": "Point", "coordinates": [78.534157, 17.366557]}, "properties": {"SchoolCode": "61605", "SchoolName": "TGSWREIS L.B.Nagar-HYDERABAD-DEGREE", "DistrictName": "Rangareddy", "DistrictGeo": "Rangareddy"}}, {"type": "Feature", "geometry": {"type": "Point", "coordinates": [78.573364, 17.582108]}, "properties": {"SchoolCode": "61607", "SchoolName": "TGSWREIS JAGADGIRIGUTTA-MEDCHAL-DEGREE", "DistrictName": "Medchal Malkajgiri", "DistrictGeo": "Medchal_Malkajgiri"}}, {"type": "Feature", "geometry": {"type": "Point", "coordinates": [78.506004, 17.628502]}, "properties": {"SchoolCode": "61511", "SchoolName": "TGSWREIS MEDHCAL -MEDCHAL-(G) (COE)", "DistrictName": "Medchal Malkajgiri", "DistrictGeo": "Medchal_Malkajgiri"}}, {"type": "Feature", "geometry": {"type": "Point", "coordinates": [78.717191, 17.446571]}, "properties": {"SchoolCode": "61608", "SchoolName": "TGSWREIS Mahendrahills (GHMC) - Degree college - Girls-Hyderabad-DEGREE", "DistrictName": "Hyderabad", "DistrictGeo": "Hyderabad"}}, {"type": "Feature", "geometry": {"type": "Point", "coordinates": [78.717191, 17.446571]}, "properties": {"SchoolCode": "61606", "SchoolName": "TGSWREIS Budvel (GHMC) (Rajendranagar Constituency", "DistrictName": "Rangareddy", "DistrictGeo": "Rangareddy"}}, {"type": "Feature", "geometry": {"type": "Point", "coordinates": [78.4602, 17.9506]}, "properties": {"SchoolCode": "61444", "SchoolName": "TGSWREIS Manopad(G)  -JOGULAMBHA (GADWAL)-(G)", "DistrictName": "Jogulamba Gadwal", "DistrictGeo": "Jogulamba Gadwal"}}, {"type": "Feature", "geometry": {"type": "Point", "coordinates": [77.910202, 16.143127]}, "properties": {"SchoolCode": "61445", "SchoolName": "TGSWREIS Leeja(B)-JOGULAMBHA (GADWAL)-(B)", "DistrictName": "Jogulamba Gadwal", "DistrictGeo": "Jogulamba Gadwal"}}, {"type": "Feature", "geometry": {"type": "Point", "coordinates": [77.66442, 16.28999]}, "properties": {"SchoolCode": "61446", "SchoolName": "TGSWREIS Alampur(G)-JOGULAMBHA (GADWAL)-(G)", "DistrictName": "Jogulamba Gadwal", "DistrictGeo": "Jogulamba Gadwal"}}, {"type": "Feature", "geometry": {"type": "Point", "coordinates": [77.943642, 16.358724]}, "properties": {"SchoolCode": "61453", "SchoolName": "TGSWREIS Veepanagandla (B)-WANAPARTHY-(B)", "DistrictName": "Wanaparthy", "DistrictGeo": "Wanaparthy"}}, {"type": "Feature", "geometry": {"type": "Point", "coordinates": [78.036142, 16.359122]}, "properties": {"SchoolCode": "61458", "SchoolName": "TGSWREIS Peddamandadi (G)-WANAPARTHY-(G)", "DistrictName": "Wanaparthy", "DistrictGeo": "Wanaparthy"}}, {"type": "Feature", "geometry": {"type": "Point", "coordinates": [78.6072, 17.3839]}, "properties": {"SchoolCode": "61459", "SchoolName": "TGSWREIS Gadwal(B)-JOGULAMBHA (GADWAL)-(B)", "DistrictName": "Jogulamba Gadwal", "DistrictGeo": "Jogulamba Gadwal"}}, {"type": "Feature", "geometry": {"type": "Point", "coordinates": [77.941139, 16.384611]}, "properties": {"SchoolCode": "61463", "SchoolName": "TGSWREIS Kothakota (G)-WANAPARTHY-(G)", "DistrictName": "Wanaparthy", "DistrictGeo": "Wanaparthy"}}, {"type": "Feature", "geometry": {"type": "Point", "coordinates": [77.8969771, 16.3821009]}, "properties": {"SchoolCode": "61407", "SchoolName": "TGSWREIS MADANAPURAM-WANAPARTHY-(B)", "DistrictName": "Wanaparthy", "DistrictGeo": "Wanaparthy"}}, {"type": "Feature", "geometry": {"type": "Point", "coordinates": [79.3903104, 19.2937984]}, "properties": {"SchoolCode": "61410", "SchoolName": "TGSWREIS GHATTU-JOGULAMBHA (GADWAL)-(G)", "DistrictName": "Jogulamba Gadwal", "DistrictGeo": "Jogulamba Gadwal"}}, {"type": "Feature", "geometry": {"type": "Point", "coordinates": [78.4541, 17.3534]}, "properties": {"SchoolCode": "61442", "SchoolName": "TGSWREIS ALAMPUR (NEW)-JOGULAMBHA (GADWAL)-(B)", "DistrictName": "Jogulamba Gadwal", "DistrictGeo": "Jogulamba Gadwal"}}, {"type": "Feature", "geometry": {"type": "Point", "coordinates": [78.161472, 16.449194]}, "properties": {"SchoolCode": "61443", "SchoolName": "TGSWREIS GOPALPET (NEW)-WANAPARTHY-(G)", "DistrictName": "Wanaparthy", "DistrictGeo": "Wanaparthy"}}, {"type": "Feature", "geometry": {"type": "Point", "coordinates": [78.0352102, 16.3591722]}, "properties": {"SchoolCode": "61466", "SchoolName": "TGSWREIS Wanaparthi-WANAPARTHY-DEGREE", "DistrictName": "Wanaparthy", "DistrictGeo": "Wanaparthy"}}, {"type": "Feature", "geometry": {"type": "Point", "coordinates": [79.8411852, 18.6884215]}, "properties": {"SchoolCode": "52024", "SchoolName": "TGSWREIS Kataram(G)-JAYASHANKAR (Bhupalpally)-(G)", "DistrictName": "Jayashankar Bhupalapally", "DistrictGeo": "Jayashankar Bhupalpally"}}, {"type": "Feature", "geometry": {"type": "Point", "coordinates": [79.178108, 17.726346]}, "properties": {"SchoolCode": "52101", "SchoolName": "TGSWREIS JANGAON-JANGAON-(B)", "DistrictName": "Janagaon", "DistrictGeo": "Jangoan"}}, {"type": "Feature", "geometry": {"type": "Point", "coordinates": [79.877428, 18.16461]}, "properties": {"SchoolCode": "52103", "SchoolName": "TGSWREIS JAKARAM-JAYASHANKAR (Bhupalpally)-(B)", "DistrictName": "Mulugu", "DistrictGeo": "Mulugu"}}, {"type": "Feature", "geometry": {"type": "Point", "coordinates": [80.005329, 17.607275]}, "properties": {"SchoolCode": "52105", "SchoolName": "TGSWREIS MAHABOOBABAD-MAHABUBABAD-(G)", "DistrictName": "Mahaboobabad", "DistrictGeo": "Mahabubabad"}}, {"type": "Feature", "geometry": {"type": "Point", "coordinates": [79.3831900959166, 17.8722036116761]}, "properties": {"SchoolCode": "52106", "SchoolName": "TGSWREIS GHANAPUR-JANGAON-(B) (COE)", "DistrictName": "Janagaon", "DistrictGeo": "Jangoan"}}, {"type": "Feature", "geometry": {"type": "Point", "coordinates": [79.675109, 17.570807]}, "properties": {"SchoolCode": "52111", "SchoolName": "TGSWREIS TORRUR -MAHABUBABAD-(G)", "DistrictName": "Mahaboobabad", "DistrictGeo": "Mahabubabad"}}, {"type": "Feature", "geometry": {"type": "Point", "coordinates": [79.679476, 18.338573]}, "properties": {"SchoolCode": "52113", "SchoolName": "TGSWREIS CHITYAL -JAYASHANKAR (Bhupalpally)-(G)", "DistrictName": "Jayashankar Bhupalapally", "DistrictGeo": "Jayashankar Bhupalpally"}}, {"type": "Feature", "geometry": {"type": "Point", "coordinates": [79.424861, 17.660722]}, "properties": {"SchoolCode": "52114", "SchoolName": "TGSWREIS PALAKURTHY -JANGAON-(G)", "DistrictName": "Janagaon", "DistrictGeo": "Jangoan"}}, {"type": "Feature", "geometry": {"type": "Point", "coordinates": [79.8006, 17.6662]}, "properties": {"SchoolCode": "52115", "SchoolName": "TGSWREIS INUGURTHY -MAHABUBABAD-(G)", "DistrictName": "Mahaboobabad", "DistrictGeo": "Mahabubabad"}}, {"type": "Feature", "geometry": {"type": "Point", "coordinates": [79.4860853, 17.7628334]}, "properties": {"SchoolCode": "52116", "SchoolName": "TGSWREIS ZAFFARGADH -JANGAON-(G)", "DistrictName": "Janagaon", "DistrictGeo": "Jangoan"}}, {"type": "Feature", "geometry": {"type": "Point", "coordinates": [78.862917, 17.419889]}, "properties": {"SchoolCode": "52117", "SchoolName": "TGSWREIS MARIPEDA-MAHABUBABAD-(B)", "DistrictName": "Mahaboobabad", "DistrictGeo": "Mahabubabad"}}, {"type": "Feature", "geometry": {"type": "Point", "coordinates": [79.6113, 17.9745]}, "properties": {"SchoolCode": "52123", "SchoolName": "TGSWREIS Bhupalapalli (G)-JAYASHANKAR (Bhupalpally", "DistrictName": "Jayashankar Bhupalapally", "DistrictGeo": "Jayashankar Bhupalpally"}}, {"type": "Feature", "geometry": {"type": "Point", "coordinates": [79.2046765, 17.7298447]}, "properties": {"SchoolCode": "52124", "SchoolName": "TGSWREIS Narmetta (G)-JANGAON-(G)", "DistrictName": "Janagaon", "DistrictGeo": "Jangoan"}}, {"type": "Feature", "geometry": {"type": "Point", "coordinates": [79.8596778, 18.1313978]}, "properties": {"SchoolCode": "52126", "SchoolName": "TGSWREIS Eturnagaram(B)-JAYASHANKAR (Bhupalpally)-", "DistrictName": "Mulugu", "DistrictGeo": "Mulugu"}}, {"type": "Feature", "geometry": {"type": "Point", "coordinates": [79.9359366, 18.189352]}, "properties": {"SchoolCode": "52127", "SchoolName": "TGSWREIS Mulugu(G)-JAYASHANKAR (Bhupalpally)-(G)", "DistrictName": "Mulugu", "DistrictGeo": "Mulugu"}}, {"type": "Feature", "geometry": {"type": "Point", "coordinates": [80.022101, 17.5841]}, "properties": {"SchoolCode": "52132", "SchoolName": "TGSWREIS Mahabubabad - Degree college- Girls-MAHAB", "DistrictName": "Mahaboobabad", "DistrictGeo": "Mahabubabad"}}, {"type": "Feature", "geometry": {"type": "Point", "coordinates": [79.5045334220655, 18.0695245709885]}, "properties": {"SchoolCode": "52133", "SchoolName": "TGSWREIS Bhupalapalli - Degree College - Girls-JAY", "DistrictName": "Jayashankar Bhupalapally", "DistrictGeo": "Jayashankar Bhupalpally"}}, {"type": "Feature", "geometry": {"type": "Point", "coordinates": [80.3616719, 17.1877501]}, "properties": {"SchoolCode": "52202", "SchoolName": "TGSWREIS WYRA-KHAMMAM-(G)", "DistrictName": "Khammam", "DistrictGeo": "Khammam"}}, {"type": "Feature", "geometry": {"type": "Point", "coordinates": [80.1895061, 17.2539985]}, "properties": {"SchoolCode": "52204", "SchoolName": "TGSWREIS KHAMMAM [G] - [Tekulapally]-KHAMMAM-(G)", "DistrictName": "Khammam", "DistrictGeo": "Khammam"}}, {"type": "Feature", "geometry": {"type": "Point", "coordinates": [80.5652594, 17.2011449]}, "properties": {"SchoolCode": "52206", "SchoolName": "TGSWREIS KALLURU-KHAMMAM-(G)", "DistrictName": "Khammam", "DistrictGeo": "Khammam"}}, {"type": "Feature", "geometry": {"type": "Point", "coordinates": [80.028413, 17.119534]}, "properties": {"SchoolCode": "52207", "SchoolName": "TGSWREIS NELAKONDAPALLY-KHAMMAM-(G)", "DistrictName": "Khammam", "DistrictGeo": "Khammam"}}, {"type": "Feature", "geometry": {"type": "Point", "coordinates": [80.1488092, 17.2595947]}, "properties": {"SchoolCode": "52208", "SchoolName": "TGSWREIS KHAMMAM  [DR.BRAC.JC]-KHAMMAM-(G) (COE)", "DistrictName": "Khammam", "DistrictGeo": "Khammam"}}, {"type": "Feature", "geometry": {"type": "Point", "coordinates": [80.466542, 16.81381]}, "properties": {"SchoolCode": "52212", "SchoolName": "TGSWREIS YERUPALEM -KHAMMAM-(G)", "DistrictName": "Khammam", "DistrictGeo": "Khammam"}}, {"type": "Feature", "geometry": {"type": "Point", "coordinates": [80.1382612, 17.2800831]}, "properties": {"SchoolCode": "52213", "SchoolName": "TGSWREIS DANAVAYIGUDEM (NEW)-KHAMMAM-(G) (COE)", "DistrictName": "Khammam", "DistrictGeo": "Khammam"}}, {"type": "Feature", "geometry": {"type": "Point", "coordinates": [80.36509, 16.960761]}, "properties": {"SchoolCode": "52214", "SchoolName": "TGSWREIS Mudigonda(B) -KHAMMAM-(B)", "DistrictName": "Khammam", "DistrictGeo": "Khammam"}}, {"type": "Feature", "geometry": {"type": "Point", "coordinates": [80.2627531, 17.0284136]}, "properties": {"SchoolCode": "52215", "SchoolName": "TGSWREIS Madhira(G)-KHAMMAM-(G)", "DistrictName": "Khammam", "DistrictGeo": "Khammam"}}, {"type": "Feature", "geometry": {"type": "Point", "coordinates": [80.6330332, 17.1623363]}, "properties": {"SchoolCode": "52216", "SchoolName": "TGSWREIS Sathupalli (B)-KHAMMAM-(B)", "DistrictName": "Khammam", "DistrictGeo": "Khammam"}}, {"type": "Feature", "geometry": {"type": "Point", "coordinates": [80.094628, 17.242678]}, "properties": {"SchoolCode": "52217", "SchoolName": "TGSWREIS Kusumanchi (G)-KHAMMAM-(G)", "DistrictName": "Khammam", "DistrictGeo": "Khammam"}}, {"type": "Feature", "geometry": {"type": "Point", "coordinates": [80.201461, 17.207806]}, "properties": {"SchoolCode": "52220", "SchoolName": "TGSWREIS Thirumalayapalem (B)-KHAMMAM-(B)", "DistrictName": "Khammam", "DistrictGeo": "Khammam"}}, {"type": "Feature", "geometry": {"type": "Point", "coordinates": [80.094278, 17.242695]}, "properties": {"SchoolCode": "52222", "SchoolName": "TGSWREIS Khammam-KHAMMAM-DEGREE", "DistrictName": "Khammam", "DistrictGeo": "Khammam"}}, {"type": "Feature", "geometry": {"type": "Point", "coordinates": [78.31368, 18.423183]}, "properties": {"SchoolCode": "61801", "SchoolName": "TGSWREIS UPPALAWAI-KAMAREDDY-(B)", "DistrictName": "Kamareddy", "DistrictGeo": "Kamareddy"}}, {"type": "Feature", "geometry": {"type": "Point", "coordinates": [78.398824, 18.168701]}, "properties": {"SchoolCode": "61803", "SchoolName": "TGSWREIS BHIKNOOR-KAMAREDDY-(B) (COE)", "DistrictName": "Kamareddy", "DistrictGeo": "Kamareddy"}}, {"type": "Feature", "geometry": {"type": "Point", "coordinates": [78.020189, 18.181443]}, "properties": {"SchoolCode": "61806", "SchoolName": "TGSWREIS YELLAREDDY-KAMAREDDY-(B)", "DistrictName": "Kamareddy", "DistrictGeo": "Kamareddy"}}, {"type": "Feature", "geometry": {"type": "Point", "coordinates": [78.4706, 17.3934]}, "properties": {"SchoolCode": "61808", "SchoolName": "TGSWREIS BANSWADA-KAMAREDDY-(G)", "DistrictName": "Kamareddy", "DistrictGeo": "Kamareddy"}}, {"type": "Feature", "geometry": {"type": "Point", "coordinates": [78.5711104, 17.4194688]}, "properties": {"SchoolCode": "61809", "SchoolName": "TGSWREIS THAKKADAPALLY/Peddakodapgal-KAMAREDDY-(G)", "DistrictName": "Kamareddy", "DistrictGeo": "Kamareddy"}}, {"type": "Feature", "geometry": {"type": "Point", "coordinates": [18.3122, 78.2727]}, "properties": {"SchoolCode": "61810", "SchoolName": "TGSWREIS TADWAI -KAMAREDDY-(G)", "DistrictName": "Kamareddy", "DistrictGeo": "Kamareddy"}}, {"type": "Feature", "geometry": {"type": "Point", "coordinates": [77.670218, 18.423507]}, "properties": {"SchoolCode": "61811", "SchoolName": "TGSWREIS EKLARA BIG -KAMAREDDY-(G)", "DistrictName": "Kamareddy", "DistrictGeo": "Kamareddy"}}, {"type": "Feature", "geometry": {"type": "Point", "coordinates": [77.886739, 18.363441]}, "properties": {"SchoolCode": "61813", "SchoolName": "TGSWREIS TADKOLE -KAMAREDDY-(G)", "DistrictName": "Kamareddy", "DistrictGeo": "Kamareddy"}}, {"type": "Feature", "geometry": {"type": "Point", "coordinates": [78.41918, 18.24924]}, "properties": {"SchoolCode": "61816", "SchoolName": "TGSWREIS DOMAKONDA (NEW)-KAMAREDDY-(G)", "DistrictName": "Kamareddy", "DistrictGeo": "Kamareddy"}}, {"type": "Feature", "geometry": {"type": "Point", "coordinates": [77.9128, 18.2065]}, "properties": {"SchoolCode": "61817", "SchoolName": "TGSWREIS Bichkunda (B)-KAMAREDDY-(B)", "DistrictName": "Kamareddy", "DistrictGeo": "Kamareddy"}}, {"type": "Feature", "geometry": {"type": "Point", "coordinates": [78.321036, 18.320392]}, "properties": {"SchoolCode": "61819", "SchoolName": "TGSWREIS Lingampet (G)-KAMAREDDY-(G)", "DistrictName": "Kamareddy", "DistrictGeo": "Kamareddy"}}, {"type": "Feature", "geometry": {"type": "Point", "coordinates": [78.286248, 18.390815]}, "properties": {"SchoolCode": "61824", "SchoolName": "TGSWREIS Kamareddy-KAMAREDDY-DEGREE", "DistrictName": "Kamareddy", "DistrictGeo": "Kamareddy"}}, {"type": "Feature", "geometry": {"type": "Point", "coordinates": [106.659691, 10.842717]}, "properties": {"SchoolCode": "62313", "SchoolName": "TGSWREIS Motkur(B) -YADADRI-(B)", "DistrictName": "Yadadri Bhongir", "DistrictGeo": "Yadadri Bhuvanagiri"}}, {"type": "Feature", "geometry": {"type": "Point", "coordinates": [79.588653, 17.209491]}, "properties": {"SchoolCode": "62314", "SchoolName": "TGSWREIS Jajireddygudem(G)-SURYAPETA-(G)", "DistrictName": "Suryapet", "DistrictGeo": "Suryapet"}}, {"type": "Feature", "geometry": {"type": "Point", "coordinates": [80.0124728, 16.9589307]}, "properties": {"SchoolCode": "62317", "SchoolName": "TGSWREIS Munagala(B)-SURYAPETA-(B)", "DistrictName": "Suryapet", "DistrictGeo": "Suryapet"}}, {"type": "Feature", "geometry": {"type": "Point", "coordinates": [79.6117, 17.14081]}, "properties": {"SchoolCode": "62318", "SchoolName": "TGSWREIS Chivemla (B)-SURYAPETA-(B)", "DistrictName": "Suryapet", "DistrictGeo": "Suryapet"}}, {"type": "Feature", "geometry": {"type": "Point", "coordinates": [78.764311, 17.297176]}, "properties": {"SchoolCode": "62323", "SchoolName": "TGSWREIS Choutuppal(G)-YADADRI-(G)", "DistrictName": "Yadadri Bhongir", "DistrictGeo": "Yadadri Bhuvanagiri"}}, {"type": "Feature", "geometry": {"type": "Point", "coordinates": [79.8986355, 16.9269586]}, "properties": {"SchoolCode": "62324", "SchoolName": "TGSWREIS Huzurnagar(B)-SURYAPETA-(B)", "DistrictName": "Suryapet", "DistrictGeo": "Suryapet"}}, {"type": "Feature", "geometry": {"type": "Point", "coordinates": [79.588653, 17.209491]}, "properties": {"SchoolCode": "62328", "SchoolName": "TGSWREIS Suryapet-SURYAPETA-DEGREE", "DistrictName": "Suryapet", "DistrictGeo": "Suryapet"}}, {"type": "Feature", "geometry": {"type": "Point", "coordinates": [78.8151190758491, 18.8049700559035]}, "properties": {"SchoolCode": "52001", "SchoolName": "TGSWREIS MAIDPALLY-JAGITYAL-(B)", "DistrictName": "Jagitial", "DistrictGeo": "Jagtial"}}, {"type": "Feature", "geometry": {"type": "Point", "coordinates": [78.8463616, 18.0944896]}, "properties": {"SchoolCode": "52003", "SchoolName": "TGSWREIS RUKMAPUR-KARIMNAGAR-(B)", "DistrictName": "Karimnagar", "DistrictGeo": "Karimnagar"}}, {"type": "Feature", "geometry": {"type": "Point", "coordinates": [82.1662, 17.274]}, "properties": {"SchoolCode": "52004", "SchoolName": "TGSWREIS CHINTHAKUNTA-KARIMNAGAR-(G)", "DistrictName": "Karimnagar", "DistrictGeo": "Karimnagar"}}, {"type": "Feature", "geometry": {"type": "Point", "coordinates": [79.1392276153846, 18.38935625]}, "properties": {"SchoolCode": "52015", "SchoolName": "TGSWREIS KARIMNAGAR (COE)-KARIMNAGAR-(Co-Ed) (COE)", "DistrictName": "Karimnagar", "DistrictGeo": "Karimnagar"}}, {"type": "Feature", "geometry": {"type": "Point", "coordinates": [78.4751, 17.3617]}, "properties": {"SchoolCode": "52018", "SchoolName": "TGSWREIS MANAKONDURU (NEW)-KARIMNAGAR-(B) (COE)", "DistrictName": "Karimnagar", "DistrictGeo": "Karimnagar"}}, {"type": "Feature", "geometry": {"type": "Point", "coordinates": [79.1590806983985, 18.5611140149746]}, "properties": {"SchoolCode": "52020", "SchoolName": "TGSWREIS Choppadandi(G)-KARIMNAGAR-(G)", "DistrictName": "Karimnagar", "DistrictGeo": "Karimnagar"}}, {"type": "Feature", "geometry": {"type": "Point", "coordinates": [78.7183193198832, 17.4465271075413]}, "properties": {"SchoolCode": "62329", "SchoolName": "TGSWREIS Bhongiri-YADADRI-DEGREE", "DistrictName": "Yadadri Bhongir", "DistrictGeo": "Yadadri Bhuvanagiri"}}, {"type": "Feature", "geometry": {"type": "Point", "coordinates": [79.0561880467182, 19.032193070271]}, "properties": {"SchoolCode": "52023", "SchoolName": "TGSWREIS Gollapalle(B)-JAGITYAL-(B)", "DistrictName": "Jagitial", "DistrictGeo": "Jagtial"}}, {"type": "Feature", "geometry": {"type": "Point", "coordinates": [78.54308, 17.31005]}, "properties": {"SchoolCode": "62301", "SchoolName": "TGSWREIS BHONGIR-YADADRI-(B) (COE)", "DistrictName": "Yadadri Bhongir", "DistrictGeo": "Yadadri Bhuvanagiri"}}, {"type": "Feature", "geometry": {"type": "Point", "coordinates": [79.4283, 18.2489]}, "properties": {"SchoolCode": "52025", "SchoolName": "TGSWREIS Jammikunta(B) -KARIMNAGAR-(B)", "DistrictName": "Karimnagar", "DistrictGeo": "Karimnagar"}}, {"type": "Feature", "geometry": {"type": "Point", "coordinates": [79.5102113, 18.3558288]}, "properties": {"SchoolCode": "52026", "SchoolName": "TGSWREIS Huzurabad(G)-KARIMNAGAR-(G)", "DistrictName": "Karimnagar", "DistrictGeo": "Karimnagar"}}, {"type": "Feature", "geometry": {"type": "Point", "coordinates": [79.8688289, 16.7858511]}, "properties": {"SchoolCode": "62302", "SchoolName": "TGSWREIS MATTAMPALLI-SURYAPETA-(G)", "DistrictName": "Suryapet", "DistrictGeo": "Suryapet"}}, {"type": "Feature", "geometry": {"type": "Point", "coordinates": [78.6437835, 18.8446963]}, "properties": {"SchoolCode": "52030", "SchoolName": "TGSWREIS Metpalle(G) -JAGITYAL-(G)", "DistrictName": "Jagitial", "DistrictGeo": "Jagtial"}}, {"type": "Feature", "geometry": {"type": "Point", "coordinates": [78.71969, 18.842169]}, "properties": {"SchoolCode": "52031", "SchoolName": "TGSWREIS Koratla(B)-JAGITYAL-(B)", "DistrictName": "Jagitial", "DistrictGeo": "Jagtial"}}, {"type": "Feature", "geometry": {"type": "Point", "coordinates": [78.927092, 17.737608]}, "properties": {"SchoolCode": "62303", "SchoolName": "TGSWREIS RAJAPET-YADADRI-(B)", "DistrictName": "Yadadri Bhongir", "DistrictGeo": "Yadadri Bhuvanagiri"}}, {"type": "Feature", "geometry": {"type": "Point", "coordinates": [78.91385, 18.775538]}, "properties": {"SchoolCode": "52032", "SchoolName": "TGSWREIS Jagityal(G)-JAGITYAL-(G)", "DistrictName": "Jagitial", "DistrictGeo": "Jagtial"}}, {"type": "Feature", "geometry": {"type": "Point", "coordinates": [79.661541, 17.099245]}, "properties": {"SchoolCode": "62305", "SchoolName": "TGSWREIS SURYAPET-SURYAPETA-(G)", "DistrictName": "Suryapet", "DistrictGeo": "Suryapet"}}, {"type": "Feature", "geometry": {"type": "Point", "coordinates": [79.151532, 18.503182]}, "properties": {"SchoolCode": "52033", "SchoolName": "TGSWREIS Karimnagar-KARIMNAGAR-DEGREE", "DistrictName": "Karimnagar", "DistrictGeo": "Karimnagar"}}, {"type": "Feature", "geometry": {"type": "Point", "coordinates": [79.867309, 17.086121]}, "properties": {"SchoolCode": "62308", "SchoolName": "TGSWREIS NADIGUDEM-SURYAPETA-(G)", "DistrictName": "Suryapet", "DistrictGeo": "Suryapet"}}, {"type": "Feature", "geometry": {"type": "Point", "coordinates": [78.9313928290416, 18.8053689734727]}, "properties": {"SchoolCode": "52035", "SchoolName": "TGSWREIS Jagtial - Degree College - Girls-JAGITYAL", "DistrictName": "Jagitial", "DistrictGeo": "Jagtial"}}, {"type": "Feature", "geometry": {"type": "Point", "coordinates": [17.388725, 79.356592]}, "properties": {"SchoolCode": "62309", "SchoolName": "TGSWREIS RAMANNAPET(Addagudur) -YADADRI-(G)", "DistrictName": "Yadadri Bhongir", "DistrictGeo": "Yadadri Bhuvanagiri"}}, {"type": "Feature", "geometry": {"type": "Point", "coordinates": [79.035, 17.6459]}, "properties": {"SchoolCode": "62310", "SchoolName": "TGSWREIS ALER -YADADRI-(G)", "DistrictName": "Yadadri Bhongir", "DistrictGeo": "Yadadri Bhuvanagiri"}}, {"type": "Feature", "geometry": {"type": "Point", "coordinates": [79.57462, 17.420193]}, "properties": {"SchoolCode": "62312", "SchoolName": "TGSWREIS TUNGATHURTHY -SURYAPETA-(G)", "DistrictName": "Suryapet", "DistrictGeo": "Suryapet"}}, {"type": "Feature", "geometry": {"type": "Point", "coordinates": [78.1443, 16.763]}, "properties": {"SchoolCode": "61454", "SchoolName": "TGSWREIS Balanagar(B)-MAHABOOBNAGAR-(B)", "DistrictName": "Mahaboobnagar", "DistrictGeo": "Mahabubnagar"}}, {"type": "Feature", "geometry": {"type": "Point", "coordinates": [77.612117, 16.856231]}, "properties": {"SchoolCode": "61457", "SchoolName": "TGSWREIS Maddur(G)-MAHABOOBNAGAR-(G)", "DistrictName": "Narayanpet", "DistrictGeo": "Narayanpet"}}, {"type": "Feature", "geometry": {"type": "Point", "coordinates": [77.5170626, 16.5059651]}, "properties": {"SchoolCode": "61460", "SchoolName": "TGSWREIS Utkoor (G)-MAHABOOBNAGAR-(G)", "DistrictName": "Narayanpet", "DistrictGeo": "Narayanpet"}}, {"type": "Feature", "geometry": {"type": "Point", "coordinates": [79.45205, 18.099519]}, "properties": {"SchoolCode": "52013", "SchoolName": "TGSWREIS ELKATURTY -WARANGAL URBAN-(G)", "DistrictName": "Hanamkonda", "DistrictGeo": "Hanumakonda"}}, {"type": "Feature", "geometry": {"type": "Point", "coordinates": [77.504615, 16.509645]}, "properties": {"SchoolCode": "61461", "SchoolName": "TGSWREIS Makthal(G)-MAHABOOBNAGAR-(G)", "DistrictName": "Narayanpet", "DistrictGeo": "Narayanpet"}}, {"type": "Feature", "geometry": {"type": "Point", "coordinates": [79.706137, 18.191239]}, "properties": {"SchoolCode": "52102", "SchoolName": "TGSWREIS PARKAL-WARANGAL RURAL-(G)", "DistrictName": "Hanamkonda", "DistrictGeo": "Hanumakonda"}}, {"type": "Feature", "geometry": {"type": "Point", "coordinates": [77.52608, 16.728099]}, "properties": {"SchoolCode": "61462", "SchoolName": "TGSWREIS Damaragidda (B)-MAHABOOBNAGAR-(B)", "DistrictName": "Narayanpet", "DistrictGeo": "Narayanpet"}}, {"type": "Feature", "geometry": {"type": "Point", "coordinates": [79.897301, 17.939235]}, "properties": {"SchoolCode": "52107", "SchoolName": "TGSWREIS NARSAMPET-WARANGAL RURAL-(B)", "DistrictName": "Warangal", "DistrictGeo": "Warangal"}}, {"type": "Feature", "geometry": {"type": "Point", "coordinates": [77.85916, 16.64552]}, "properties": {"SchoolCode": "61464", "SchoolName": "TGSWREIS Devarakadra(B)-MAHABOOBNAGAR-(B)", "DistrictName": "Mahaboobnagar", "DistrictGeo": "Mahabubnagar"}}, {"type": "Feature", "geometry": {"type": "Point", "coordinates": [77.9267135, 16.6912102]}, "properties": {"SchoolCode": "61405", "SchoolName": "TGSWREIS MAHABOOBNAGAR-MAHABOOBNAGAR-(G)", "DistrictName": "Mahaboobnagar", "DistrictGeo": "Mahabubnagar"}}, {"type": "Feature", "geometry": {"type": "Point", "coordinates": [79.7191133, 17.7466567]}, "properties": {"SchoolCode": "52108", "SchoolName": "TGSWREIS PARVATHAGIRI-WARANGAL RURAL-(G)", "DistrictName": "Warangal", "DistrictGeo": "Warangal"}}, {"type": "Feature", "geometry": {"type": "Point", "coordinates": [77.4847, 16.74221]}, "properties": {"SchoolCode": "61408", "SchoolName": "TGSWREIS NARAYANPET-MAHABOOBNAGAR-(G)", "DistrictName": "Narayanpet", "DistrictGeo": "Narayanpet"}}, {"type": "Feature", "geometry": {"type": "Point", "coordinates": [78.098395, 16.741283]}, "properties": {"SchoolCode": "61412", "SchoolName": "TGSWREIS JADCHERLA-MAHABOOBNAGAR-(G)", "DistrictName": "Mahaboobnagar", "DistrictGeo": "Mahabubnagar"}}, {"type": "Feature", "geometry": {"type": "Point", "coordinates": [79.60224, 17.72437]}, "properties": {"SchoolCode": "52112", "SchoolName": "TGSWREIS RAYAPARTHY -WARANGAL RURAL-(G)", "DistrictName": "Warangal", "DistrictGeo": "Warangal"}}, {"type": "Feature", "geometry": {"type": "Point", "coordinates": [77.7138029, 16.60346]}, "properties": {"SchoolCode": "61413", "SchoolName": "TGSWREIS MARIKAL-MAHABOOBNAGAR-(G)", "DistrictName": "Narayanpet", "DistrictGeo": "Narayanpet"}}, {"type": "Feature", "geometry": {"type": "Point", "coordinates": [79.4675047, 17.9467928]}, "properties": {"SchoolCode": "52118", "SchoolName": "TGSWREIS WARDHANNAPET (NEW)-WARANGAL URBAN-(B)", "DistrictName": "Hanamkonda", "DistrictGeo": "Hanumakonda"}}, {"type": "Feature", "geometry": {"type": "Point", "coordinates": [78.010507, 16.769913]}, "properties": {"SchoolCode": "61465", "SchoolName": "TGSWREIS Mahabubnagar-MAHABOOBNAGAR-DEGREE", "DistrictName": "Mahaboobnagar", "DistrictGeo": "Mahabubnagar"}}, {"type": "Feature", "geometry": {"type": "Point", "coordinates": [79.573252, 17.983977]}, "properties": {"SchoolCode": "52119", "SchoolName": "TGSWREIS Dharmasagar(G)-WARANGAL URBAN-(G)", "DistrictName": "Hanamkonda", "DistrictGeo": "Hanumakonda"}}, {"type": "Feature", "geometry": {"type": "Point", "coordinates": [77.8562983907009, 16.9189189189192]}, "properties": {"SchoolCode": "61509", "SchoolName": "TGSWREIS NANCHERLA -MAHABOOBNAGAR-(G)", "DistrictName": "Mahaboobnagar", "DistrictGeo": "Mahabubnagar"}}, {"type": "Feature", "geometry": {"type": "Point", "coordinates": [78.422056, 18.111]}, "properties": {"SchoolCode": "61708", "SchoolName": "TGSWREIS RAMAYAMPET-MEDAK-(G)", "DistrictName": "Medak", "DistrictGeo": "Medak"}}, {"type": "Feature", "geometry": {"type": "Point", "coordinates": [79.501016, 18.003286]}, "properties": {"SchoolCode": "52120", "SchoolName": "TGSWREIS Hasanparthy(G)-WARANGAL URBAN-(G)", "DistrictName": "Hanamkonda", "DistrictGeo": "Hanumakonda"}}, {"type": "Feature", "geometry": {"type": "Point", "coordinates": [78.2806768698431, 18.0630813807461]}, "properties": {"SchoolCode": "61715", "SchoolName": "TGSWREIS MEDAK -MEDAK-(G)", "DistrictName": "Medak", "DistrictGeo": "Medak"}}, {"type": "Feature", "geometry": {"type": "Point", "coordinates": [78.493665, 17.875329]}, "properties": {"SchoolCode": "61729", "SchoolName": "TGSWREIS Toopran(G)-MEDAK-(G)", "DistrictName": "Medak", "DistrictGeo": "Medak"}}, {"type": "Feature", "geometry": {"type": "Point", "coordinates": [78.428497, 18.119051]}, "properties": {"SchoolCode": "61734", "SchoolName": "TGSWREIS Medak-MEDAK-DEGREE", "DistrictName": "Medak", "DistrictGeo": "Medak"}}, {"type": "Feature", "geometry": {"type": "Point", "coordinates": [78.1902027, 17.9578924]}, "properties": {"SchoolCode": "61722", "SchoolName": "TGSWREIS KULCHARAM NEW-MEDAK-(G)", "DistrictName": "Medak", "DistrictGeo": "Medak"}}, {"type": "Feature", "geometry": {"type": "Point", "coordinates": [79.654134, 18.04407]}, "properties": {"SchoolCode": "52121", "SchoolName": "TGSWREIS Parkal (B) -WARANGAL RURAL-(B)", "DistrictName": "Hanamkonda", "DistrictGeo": "Hanumakonda"}}, {"type": "Feature", "geometry": {"type": "Point", "coordinates": [79.682672, 18.190619]}, "properties": {"SchoolCode": "52122", "SchoolName": "TGSWREIS Atmakur(G)-WARANGAL RURAL-(G)", "DistrictName": "Hanamkonda", "DistrictGeo": "Hanumakonda"}}, {"type": "Feature", "geometry": {"type": "Point", "coordinates": [79.8687279, 17.8803146]}, "properties": {"SchoolCode": "52128", "SchoolName": "TGSWREIS Duggondi(G)-WARANGAL RURAL-(G)", "DistrictName": "Warangal", "DistrictGeo": "Warangal"}}, {"type": "Feature", "geometry": {"type": "Point", "coordinates": [78.318, 16.39]}, "properties": {"SchoolCode": "61447", "SchoolName": "TGSWREIS Vangoor(G)-NAGARKURNOOL-(G)", "DistrictName": "Nagarkurnool", "DistrictGeo": "Nagarkurnool"}}, {"type": "Feature", "geometry": {"type": "Point", "coordinates": [79.543316, 18.0307305]}, "properties": {"SchoolCode": "52129", "SchoolName": "TGSWREIS Warangal West(G)-WARANGAL URBAN-(G)", "DistrictName": "Hanamkonda", "DistrictGeo": "Hanumakonda"}}, {"type": "Feature", "geometry": {"type": "Point", "coordinates": [79.5886057, 17.9454916]}, "properties": {"SchoolCode": "52130", "SchoolName": "TGSWREIS Warangal East-WARANGAL URBAN-DEGREE", "DistrictName": "Hanamkonda", "DistrictGeo": "Hanumakonda"}}, {"type": "Feature", "geometry": {"type": "Point", "coordinates": [79.580594, 17.980185]}, "properties": {"SchoolCode": "52131", "SchoolName": "TGSWREIS Warangal West-WARANGAL URBAN-DEGREE", "DistrictName": "Hanamkonda", "DistrictGeo": "Hanumakonda"}}, {"type": "Feature", "geometry": {"type": "Point", "coordinates": [77.6485, 17.3639]}, "properties": {"SchoolCode": "61448", "SchoolName": "TGSWREIS Bijinapalle(B)-NAGARKURNOOL-(B)", "DistrictName": "Nagarkurnool", "DistrictGeo": "Nagarkurnool"}}, {"type": "Feature", "geometry": {"type": "Point", "coordinates": [78.537056, 16.742833]}, "properties": {"SchoolCode": "61449", "SchoolName": "TGSWREIS Veldanda (G) -NAGARKURNOOL-(G)", "DistrictName": "Nagarkurnool", "DistrictGeo": "Nagarkurnool"}}, {"type": "Feature", "geometry": {"type": "Point", "coordinates": [78.364185, 16.297055]}, "properties": {"SchoolCode": "61451", "SchoolName": "TGSWREIS Peddakothapalle(B)-NAGARKURNOOL-(B)", "DistrictName": "Nagarkurnool", "DistrictGeo": "Nagarkurnool"}}, {"type": "Feature", "geometry": {"type": "Point", "coordinates": [78.318, 16.107]}, "properties": {"SchoolCode": "61452", "SchoolName": "TGSWREIS Kollapur(G)-NAGARKURNOOL-(G)", "DistrictName": "Nagarkurnool", "DistrictGeo": "Nagarkurnool"}}, {"type": "Feature", "geometry": {"type": "Point", "coordinates": [78.53113, 16.661114]}, "properties": {"SchoolCode": "61401", "SchoolName": "TGSWREIS JAYAPRAKASHNAGAR-NAGARKURNOOL-(B) (COE)", "DistrictName": "Nagarkurnool", "DistrictGeo": "Nagarkurnool"}}, {"type": "Feature", "geometry": {"type": "Point", "coordinates": [78.7577, 16.37331]}, "properties": {"SchoolCode": "61402", "SchoolName": "TGSWREIS MANNANUR-NAGARKURNOOL-(G)", "DistrictName": "Nagarkurnool", "DistrictGeo": "Nagarkurnool"}}, {"type": "Feature", "geometry": {"type": "Point", "coordinates": [78.2263318, 14.4222388]}, "properties": {"SchoolCode": "61403", "SchoolName": "TGSWREIS LINGAL-NAGARKURNOOL-(B)", "DistrictName": "Nagarkurnool", "DistrictGeo": "Nagarkurnool"}}, {"type": "Feature", "geometry": {"type": "Point", "coordinates": [78.6364, 16.3995]}, "properties": {"SchoolCode": "61404", "SchoolName": "TGSWREIS ATCHAMPETA -NAGARKURNOOL-(B)", "DistrictName": "Nagarkurnool", "DistrictGeo": "Nagarkurnool"}}, {"type": "Feature", "geometry": {"type": "Point", "coordinates": [78.453, 16.4505]}, "properties": {"SchoolCode": "61411", "SchoolName": "TGSWREIS TELKAPALLI -NAGARKURNOOL-(G)", "DistrictName": "Nagarkurnool", "DistrictGeo": "Nagarkurnool"}}, {"type": "Feature", "geometry": {"type": "Point", "coordinates": [78.2199347, 17.0408805]}, "properties": {"SchoolCode": "61467", "SchoolName": "TGSWREIS Nagarkurnoor-NAGARKURNOOL-DEGREE", "DistrictName": "Nagarkurnool", "DistrictGeo": "Nagarkurnool"}}, {"type": "Feature", "geometry": {"type": "Point", "coordinates": [77.613056, 17.133056]}, "properties": {"SchoolCode": "61456", "SchoolName": "TGSWREIS Kodangal(B) -VIKARABAD-(B)", "DistrictName": "Vikarabad", "DistrictGeo": "Vikarabad"}}, {"type": "Feature", "geometry": {"type": "Point", "coordinates": [79.187523, 17.18946]}, "properties": {"SchoolCode": "62315", "SchoolName": "TGSWREIS Katangur (G) -NALGONDA-(G)", "DistrictName": "Nalgonda", "DistrictGeo": "Nalgonda"}}, {"type": "Feature", "geometry": {"type": "Point", "coordinates": [77.8968124, 17.2883125]}, "properties": {"SchoolCode": "61513", "SchoolName": "TGSWREIS Mominpet(G) -VIKARABAD-(G)", "DistrictName": "Vikarabad", "DistrictGeo": "Vikarabad"}}, {"type": "Feature", "geometry": {"type": "Point", "coordinates": [79.202381, 17.171015]}, "properties": {"SchoolCode": "62316", "SchoolName": "TGSWREIS Nakirekal(B)-NALGONDA-(B)", "DistrictName": "Nalgonda", "DistrictGeo": "Nalgonda"}}, {"type": "Feature", "geometry": {"type": "Point", "coordinates": [79.254434, 16.985722]}, "properties": {"SchoolCode": "62319", "SchoolName": "TGSWREIS Thipparthi(B)-NALGONDA-(B)", "DistrictName": "Nalgonda", "DistrictGeo": "Nalgonda"}}, {"type": "Feature", "geometry": {"type": "Point", "coordinates": [78.204625, 17.283131]}, "properties": {"SchoolCode": "61514", "SchoolName": "TGSWREIS Bantwaram(G)-VIKARABAD-(G)", "DistrictName": "Vikarabad", "DistrictGeo": "Vikarabad"}}, {"type": "Feature", "geometry": {"type": "Point", "coordinates": [79.2440119, 17.0270867]}, "properties": {"SchoolCode": "62320", "SchoolName": "TGSWREIS Anumula (B)-NALGONDA-(B)", "DistrictName": "Nalgonda", "DistrictGeo": "Nalgonda"}}, {"type": "Feature", "geometry": {"type": "Point", "coordinates": [77.5941671, 17.2635495]}, "properties": {"SchoolCode": "61519", "SchoolName": "TGSWREIS Peddemul (B)-VIKARABAD-(B)", "DistrictName": "Vikarabad", "DistrictGeo": "Vikarabad"}}, {"type": "Feature", "geometry": {"type": "Point", "coordinates": [79.253389, 16.982388]}, "properties": {"SchoolCode": "62321", "SchoolName": "TGSWREIS Nidamanoor(G)-NALGONDA-(G)", "DistrictName": "Nalgonda", "DistrictGeo": "Nalgonda"}}, {"type": "Feature", "geometry": {"type": "Point", "coordinates": [79.248291, 17.028055]}, "properties": {"SchoolCode": "62322", "SchoolName": "TGSWREIS Chandur (B) -NALGONDA-(B)", "DistrictName": "Nalgonda", "DistrictGeo": "Nalgonda"}}, {"type": "Feature", "geometry": {"type": "Point", "coordinates": [79.565964, 16.875311]}, "properties": {"SchoolCode": "62326", "SchoolName": "TGSWREIS Miryalaguda(B)-NALGONDA-(B)", "DistrictName": "Nalgonda", "DistrictGeo": "Nalgonda"}}, {"type": "Feature", "geometry": {"type": "Point", "coordinates": [79.238185, 17.109781]}, "properties": {"SchoolCode": "62327", "SchoolName": "TGSWREIS NALGONDA-NALGONDA-DEGREE", "DistrictName": "Nalgonda", "DistrictGeo": "Nalgonda"}}, {"type": "Feature", "geometry": {"type": "Point", "coordinates": [78.9713505, 16.7154083]}, "properties": {"SchoolCode": "62304", "SchoolName": "TGSWREIS DEVARAKONDA(Mallapally)-NALGONDA-(G)", "DistrictName": "Nalgonda", "DistrictGeo": "Nalgonda"}}, {"type": "Feature", "geometry": {"type": "Point", "coordinates": [79.419292, 17.1743246]}, "properties": {"SchoolCode": "62306", "SchoolName": "TGSWREIS NAKREKAL-NALGONDA-(G)", "DistrictName": "Nalgonda", "DistrictGeo": "Nalgonda"}}, {"type": "Feature", "geometry": {"type": "Point", "coordinates": [79.250485, 17.026568]}, "properties": {"SchoolCode": "62307", "SchoolName": "TGSWREIS NALGONDA (G.V.GUDAM)-NALGONDA-(G) (COE)", "DistrictName": "Nalgonda", "DistrictGeo": "Nalgonda"}}, {"type": "Feature", "geometry": {"type": "Point", "coordinates": [78.68539, 16.54681]}, "properties": {"SchoolCode": "62311", "SchoolName": "TGSWREIS DINDI -NALGONDA-(G)", "DistrictName": "Nalgonda", "DistrictGeo": "Nalgonda"}}, {"type": "Feature", "geometry": {"type": "Point", "coordinates": [78.204692, 17.283734]}, "properties": {"SchoolCode": "61526", "SchoolName": "TGSWREIS Vikarabad-VIKARABAD-DEGREE", "DistrictName": "Vikarabad", "DistrictGeo": "Vikarabad"}}, {"type": "Feature", "geometry": {"type": "Point", "coordinates": [77.85817, 17.175766]}, "properties": {"SchoolCode": "61501", "SchoolName": "TGSWREIS PARGI-VIKARABAD-(B)", "DistrictName": "Vikarabad", "DistrictGeo": "Vikarabad"}}, {"type": "Feature", "geometry": {"type": "Point", "coordinates": [78.1722876876197, 18.6436477369765]}, "properties": {"SchoolCode": "61802", "SchoolName": "TGSWREIS DHARMARAM-NIZAMABAD-(G) (COE)", "DistrictName": "Nizamabad", "DistrictGeo": "Nizamabad"}}, {"type": "Feature", "geometry": {"type": "Point", "coordinates": [77.9034209145959, 17.3693846252047]}, "properties": {"SchoolCode": "61506", "SchoolName": "TGSWREIS VIKARABAD (Girls)-VIKARABAD-(G)", "DistrictName": "Vikarabad", "DistrictGeo": "Vikarabad"}}, {"type": "Feature", "geometry": {"type": "Point", "coordinates": [78.2903239, 18.7907238]}, "properties": {"SchoolCode": "61804", "SchoolName": "TGSWREIS NIZAMABAD-NIZAMABAD-(G)", "DistrictName": "Nizamabad", "DistrictGeo": "Nizamabad"}}, {"type": "Feature", "geometry": {"type": "Point", "coordinates": [78.2768171, 18.8157702]}, "properties": {"SchoolCode": "61805", "SchoolName": "TGSWREIS ARMUR-NIZAMABAD-(B)", "DistrictName": "Nizamabad", "DistrictGeo": "Nizamabad"}}, {"type": "Feature", "geometry": {"type": "Point", "coordinates": [77.8759797, 17.3407319]}, "properties": {"SchoolCode": "61507", "SchoolName": "TGSWREIS SHIVAREDDYPET (LTBC ) -VIKARABAD-(B)", "DistrictName": "Vikarabad", "DistrictGeo": "Vikarabad"}}, {"type": "Feature", "geometry": {"type": "Point", "coordinates": [78.0337152, 18.8448768]}, "properties": {"SchoolCode": "61807", "SchoolName": "TGSWREIS POCHAMPADU-NIZAMABAD-(G)", "DistrictName": "Nizamabad", "DistrictGeo": "Nizamabad"}}, {"type": "Feature", "geometry": {"type": "Point", "coordinates": [77.61989838887, 17.2651808160213]}, "properties": {"SchoolCode": "61508", "SchoolName": "TGSWREIS KOKAT -VIKARABAD-(G)", "DistrictName": "Vikarabad", "DistrictGeo": "Vikarabad"}}, {"type": "Feature", "geometry": {"type": "Point", "coordinates": [78.235, 18.634176]}, "properties": {"SchoolCode": "61812", "SchoolName": "TGSWREIS SUDDAPALLY -NIZAMABAD-(G)", "DistrictName": "Nizamabad", "DistrictGeo": "Nizamabad"}}, {"type": "Feature", "geometry": {"type": "Point", "coordinates": [78.2963089, 18.795458]}, "properties": {"SchoolCode": "61818", "SchoolName": "TGSWREIS Armoor (G)-NIZAMABAD-(G)", "DistrictName": "Nizamabad", "DistrictGeo": "Nizamabad"}}, {"type": "Feature", "geometry": {"type": "Point", "coordinates": [78.1009, 18.6559]}, "properties": {"SchoolCode": "61820", "SchoolName": "TGSWREIS Navipet(G)-NIZAMABAD-(G)", "DistrictName": "Nizamabad", "DistrictGeo": "Nizamabad"}}, {"type": "Feature", "geometry": {"type": "Point", "coordinates": [77.9070308, 18.6542057]}, "properties": {"SchoolCode": "61821", "SchoolName": "TGSWREIS Bodhan(B)-NIZAMABAD-(B)", "DistrictName": "Nizamabad", "DistrictGeo": "Nizamabad"}}, {"type": "Feature", "geometry": {"type": "Point", "coordinates": [78.2768171, 18.8157702]}, "properties": {"SchoolCode": "61822", "SchoolName": "TGSWREIS Velpur (B)-NIZAMABAD-(B)", "DistrictName": "Nizamabad", "DistrictGeo": "Nizamabad"}}, {"type": "Feature", "geometry": {"type": "Point", "coordinates": [78.140972, 18.725167]}, "properties": {"SchoolCode": "61823", "SchoolName": "TGSWREIS NIZAMABAD-NIZAMABAD-DEGREE", "DistrictName": "Nizamabad", "DistrictGeo": "Nizamabad"}}, {"type": "Feature", "geometry": {"type": "Point", "coordinates": [78.2964, 18.7916941]}, "properties": {"SchoolCode": "61825", "SchoolName": "TGSWREIS Armoor-NIZAMABAD-DEGREE", "DistrictName": "Nizamabad", "DistrictGeo": "Nizamabad"}}, {"type": "Feature", "geometry": {"type": "Point", "coordinates": [79.167101, 18.659792]}, "properties": {"SchoolCode": "52002", "SchoolName": "TGSWREIS MALLAPUR-PEDDAPALLI-(G)", "DistrictName": "Peddapally", "DistrictGeo": "Peddapalli"}}, {"type": "Feature", "geometry": {"type": "Point", "coordinates": [79.250632, 18.493751]}, "properties": {"SchoolCode": "52007", "SchoolName": "TGSWREIS GARREPALLY-PEDDAPALLI-(G)", "DistrictName": "Peddapally", "DistrictGeo": "Peddapalli"}}, {"type": "Feature", "geometry": {"type": "Point", "coordinates": [78.1664, 17.7394]}, "properties": {"SchoolCode": "61703", "SchoolName": "TGSWREIS HATHNOORA (UPGRADE)-SANGAREDDY-(B)", "DistrictName": "Sangareddy", "DistrictGeo": "Sangareddy"}}, {"type": "Feature", "geometry": {"type": "Point", "coordinates": [79.676862, 18.652831]}, "properties": {"SchoolCode": "52008", "SchoolName": "TGSWREIS MANTHANI-PEDDAPALLI-(B)", "DistrictName": "Peddapally", "DistrictGeo": "Peddapalli"}}, {"type": "Feature", "geometry": {"type": "Point", "coordinates": [79.4339856607061, 18.7787171505793]}, "properties": {"SchoolCode": "52009", "SchoolName": "TGSWREIS GODAVARIKHANI-PEDDAPALLI-(G)", "DistrictName": "Peddapally", "DistrictGeo": "Peddapalli"}}, {"type": "Feature", "geometry": {"type": "Point", "coordinates": [78.806038, 18.3346337]}, "properties": {"SchoolCode": "52010", "SchoolName": "TGSWREIS BADDENAPALLY-RAJANNA ( SIRICILLA)-(G)", "DistrictName": "Rajanna Sircilla", "DistrictGeo": "Rajanna Sircilla"}}, {"type": "Feature", "geometry": {"type": "Point", "coordinates": [79.241908, 18.720796]}, "properties": {"SchoolCode": "52011", "SchoolName": "TGSWREIS NANDI MYDARAM -PEDDAPALLI-(G)", "DistrictName": "Peddapally", "DistrictGeo": "Peddapalli"}}, {"type": "Feature", "geometry": {"type": "Point", "coordinates": [77.82321, 18.05034]}, "properties": {"SchoolCode": "61704", "SchoolName": "TGSWREIS NARAYANKHED-SANGAREDDY-(B)", "DistrictName": "Sangareddy", "DistrictGeo": "Sangareddy"}}, {"type": "Feature", "geometry": {"type": "Point", "coordinates": [78.539626, 18.286384]}, "properties": {"SchoolCode": "52012", "SchoolName": "TGSWREIS NARMAL -RAJANNA(SIRICILLA)-(G)", "DistrictName": "Rajanna Sircilla", "DistrictGeo": "Rajanna Sircilla"}}, {"type": "Feature", "geometry": {"type": "Point", "coordinates": [78.2163, 17.5606]}, "properties": {"SchoolCode": "61705", "SchoolName": "TGSWREIS CHITKUL-SANGAREDDY-(G) (COE)", "DistrictName": "Sangareddy", "DistrictGeo": "Sangareddy"}}, {"type": "Feature", "geometry": {"type": "Point", "coordinates": [78.2103, 17.5486]}, "properties": {"SchoolCode": "61706", "SchoolName": "TGSWREIS SANGAREDDY [ISNAPUR]-SANGAREDDY-(G)", "DistrictName": "Sangareddy", "DistrictGeo": "Sangareddy"}}, {"type": "Feature", "geometry": {"type": "Point", "coordinates": [77.974903, 17.752301]}, "properties": {"SchoolCode": "61709", "SchoolName": "TGSWREIS SINGOOR -SANGAREDDY-(B)", "DistrictName": "Sangareddy", "DistrictGeo": "Sangareddy"}}, {"type": "Feature", "geometry": {"type": "Point", "coordinates": [78.9947926, 18.5634952]}, "properties": {"SchoolCode": "52019", "SchoolName": "TGSWREIS Boinapalle(B) -RAJANNA ( SIRICILLA)-(B)", "DistrictName": "Rajanna Sircilla", "DistrictGeo": "Rajanna Sircilla"}}, {"type": "Feature", "geometry": {"type": "Point", "coordinates": [78.9534375, 18.2994546]}, "properties": {"SchoolCode": "52022", "SchoolName": "TGSWREIS Illanthakunta(G)-RAJANNA ( SIRICILLA)-(G)", "DistrictName": "Rajanna Sircilla", "DistrictGeo": "Rajanna Sircilla"}}, {"type": "Feature", "geometry": {"type": "Point", "coordinates": [78.1719, 17.7586]}, "properties": {"SchoolCode": "61710", "SchoolName": "TGSWREIS HATHNOORA [DRBRAC]JC-SANGAREDDY-(B) (COE)", "DistrictName": "Sangareddy", "DistrictGeo": "Sangareddy"}}, {"type": "Feature", "geometry": {"type": "Point", "coordinates": [78.8566044, 18.472574]}, "properties": {"SchoolCode": "52027", "SchoolName": "TGSWREIS Vemulawada (G)-RAJANNA ( SIRICILLA)-(G)", "DistrictName": "Rajanna Sircilla", "DistrictGeo": "Rajanna Sircilla"}}, {"type": "Feature", "geometry": {"type": "Point", "coordinates": [77.64838367, 17.6760977]}, "properties": {"SchoolCode": "61713", "SchoolName": "TGSWREIS ZAHIRABAD -SANGAREDDY-(G)", "DistrictName": "Sangareddy", "DistrictGeo": "Sangareddy"}}, {"type": "Feature", "geometry": {"type": "Point", "coordinates": [79.309484, 18.521335]}, "properties": {"SchoolCode": "52028", "SchoolName": "TGSWREIS Peddapalli (B)-PEDDAPALLI-(B)", "DistrictName": "Peddapally", "DistrictGeo": "Peddapalli"}}, {"type": "Feature", "geometry": {"type": "Point", "coordinates": [17.59906, 78.02742]}, "properties": {"SchoolCode": "61714", "SchoolName": "TGSWREIS KONDAPUR-SANGAREDDY-(B) (COE)", "DistrictName": "Sangareddy", "DistrictGeo": "Sangareddy"}}, {"type": "Feature", "geometry": {"type": "Point", "coordinates": [78.69703, 18.28055]}, "properties": {"SchoolCode": "52029", "SchoolName": "TGSWREIS Mustabad(B)-RAJANNA ( SIRICILLA)-(B)", "DistrictName": "Rajanna Sircilla", "DistrictGeo": "Rajanna Sircilla"}}, {"type": "Feature", "geometry": {"type": "Point", "coordinates": [78.0741004, 17.80178080182]}, "properties": {"SchoolCode": "61717", "SchoolName": "TGSWREIS ANDOLE -SANGAREDDY-(G)", "DistrictName": "Sangareddy", "DistrictGeo": "Sangareddy"}}, {"type": "Feature", "geometry": {"type": "Point", "coordinates": [78.8784492, 18.4936724]}, "properties": {"SchoolCode": "52034", "SchoolName": "TGSWREIS Siricilla-RAJANNA ( SIRICILLA)-DEGREE", "DistrictName": "Rajanna Sircilla", "DistrictGeo": "Rajanna Sircilla"}}, {"type": "Feature", "geometry": {"type": "Point", "coordinates": [77.7295618, 17.8507389]}, "properties": {"SchoolCode": "61723", "SchoolName": "TGSWREIS RAIKOTE (NEW)-SANGAREDDY-(G)", "DistrictName": "Sangareddy", "DistrictGeo": "Sangareddy"}}, {"type": "Feature", "geometry": {"type": "Point", "coordinates": [77.709723, 17.668714]}, "properties": {"SchoolCode": "61725", "SchoolName": "TGSWREIS Nyalkal(B)-SANGAREDDY-(B)", "DistrictName": "Sangareddy", "DistrictGeo": "Sangareddy"}}, {"type": "Feature", "geometry": {"type": "Point", "coordinates": [77.836944, 17.642222]}, "properties": {"SchoolCode": "61735", "SchoolName": "TGSWREIS Sangareddy - Degree college - Girls-SANGA", "DistrictName": "Sangareddy", "DistrictGeo": "Sangareddy"}}, {"type": "Feature", "geometry": {"type": "Point", "coordinates": [78.32046, 17.43171]}, "properties": {"SchoolCode": "61603", "SchoolName": "TGSWREIS NAGOL (IIT)/ GOWLIDODDI OLD CAMP-RANGA RE", "DistrictName": "Komurambheem Asifabad", "DistrictGeo": "Kumurambheem Asifabad"}}, {"type": "Feature", "geometry": {"type": "Point", "coordinates": [78.1327, 17.1589]}, "properties": {"SchoolCode": "61450", "SchoolName": "TGSWREIS Amangal(G)-RANGA REDDY (EAST)-(G)", "DistrictName": "Rangareddy", "DistrictGeo": "Rangareddy"}}, {"type": "Feature", "geometry": {"type": "Point", "coordinates": [78.02, 17.099118]}, "properties": {"SchoolCode": "61455", "SchoolName": "TGSWREIS Kondurgu (B)-RANGA REDDY (EAST)-(B)", "DistrictName": "Rangareddy", "DistrictGeo": "Rangareddy"}}, {"type": "Feature", "geometry": {"type": "Point", "coordinates": [78.229034, 17.045045]}, "properties": {"SchoolCode": "61406", "SchoolName": "TGSWREIS KAMMADANAM-RANGA REDDY (EAST)-(G) (COE)", "DistrictName": "Rangareddy", "DistrictGeo": "Rangareddy"}}, {"type": "Feature", "geometry": {"type": "Point", "coordinates": [79.250435, 18.122952]}, "properties": {"SchoolCode": "52005", "SchoolName": "TGSWREIS HUSNABAD-SIDDIPET-(B)", "DistrictName": "Siddipet", "DistrictGeo": "Siddipet"}}, {"type": "Feature", "geometry": {"type": "Point", "coordinates": [77.941, 16.384528]}, "properties": {"SchoolCode": "61515", "SchoolName": "TGSWREIS Shankarpalle(G) -RANGA REDDY (WEST)-(G)", "DistrictName": "Rangareddy", "DistrictGeo": "Rangareddy"}}, {"type": "Feature", "geometry": {"type": "Point", "coordinates": [79.102227, 18.154643]}, "properties": {"SchoolCode": "52006", "SchoolName": "TGSWREIS KOHEDA-SIDDIPET-(B)", "DistrictName": "Siddipet", "DistrictGeo": "Siddipet"}}, {"type": "Feature", "geometry": {"type": "Point", "coordinates": [78.205417, 17.284111]}, "properties": {"SchoolCode": "61516", "SchoolName": "TGSWREIS Chevella(G)-RANGA REDDY (WEST)-(G)", "DistrictName": "Rangareddy", "DistrictGeo": "Rangareddy"}}, {"type": "Feature", "geometry": {"type": "Point", "coordinates": [79.21488, 18.134669]}, "properties": {"SchoolCode": "52021", "SchoolName": "TGSWREIS Bejjanki(G) -SIDDIPET-(G)", "DistrictName": "Siddipet", "DistrictGeo": "Siddipet"}}, {"type": "Feature", "geometry": {"type": "Point", "coordinates": [78.4743512, 17.0826861]}, "properties": {"SchoolCode": "61517", "SchoolName": "TGSWREIS Maheshwaram (G)-RANGA REDDY (EAST)-(G)", "DistrictName": "Rangareddy", "DistrictGeo": "Rangareddy"}}, {"type": "Feature", "geometry": {"type": "Point", "coordinates": [78.6332332, 18.1886217]}, "properties": {"SchoolCode": "61702", "SchoolName": "TGSWREIS RAMAKKAPET-SIDDIPET-(G)", "DistrictName": "Siddipet", "DistrictGeo": "Siddipet"}}, {"type": "Feature", "geometry": {"type": "Point", "coordinates": [78.5487, 17.2739]}, "properties": {"SchoolCode": "61518", "SchoolName": "TGSWREIS Kandukur(B)-RANGA REDDY (EAST)-(B)", "DistrictName": "Rangareddy", "DistrictGeo": "Rangareddy"}}, {"type": "Feature", "geometry": {"type": "Point", "coordinates": [78.7038626, 17.9924243]}, "properties": {"SchoolCode": "61707", "SchoolName": "TGSWREIS thogutta (G) -SIDDIPET-(G)", "DistrictName": "Siddipet", "DistrictGeo": "Siddipet"}}, {"type": "Feature", "geometry": {"type": "Point", "coordinates": [78.643056, 17.742682]}, "properties": {"SchoolCode": "61716", "SchoolName": "TGSWREIS MULUGU -SIDDIPET-(G)", "DistrictName": "Siddipet", "DistrictGeo": "Siddipet"}}, {"type": "Feature", "geometry": {"type": "Point", "coordinates": [78.663724, 18.041269]}, "properties": {"SchoolCode": "61718", "SchoolName": "TGSWREIS Alwal (B)-SIDDIPET-(B)", "DistrictName": "Siddipet", "DistrictGeo": "Siddipet"}}, {"type": "Feature", "geometry": {"type": "Point", "coordinates": [78.9050828, 18.0815011]}, "properties": {"SchoolCode": "61719", "SchoolName": "TGSWREIS MITTAPALLY -SIDDIPET-(G)", "DistrictName": "Siddipet", "DistrictGeo": "Siddipet"}}, {"type": "Feature", "geometry": {"type": "Point", "coordinates": [78.674961, 17.022779]}, "properties": {"SchoolCode": "61522", "SchoolName": "TGSWREIS Shamshabad(B)-RANGA REDDY (EAST)-(B)", "DistrictName": "Rangareddy", "DistrictGeo": "Rangareddy"}}, {"type": "Feature", "geometry": {"type": "Point", "coordinates": [78.6386451, 17.7871811]}, "properties": {"SchoolCode": "61726", "SchoolName": "TGSWREIS Gajwel (G)-SIDDIPET-(G)", "DistrictName": "Siddipet", "DistrictGeo": "Siddipet"}}, {"type": "Feature", "geometry": {"type": "Point", "coordinates": [78.53401, 17.36697]}, "properties": {"SchoolCode": "61523", "SchoolName": "TGSWREIS Saroornagar (G)-RANGA REDDY (EAST)-(G)", "DistrictName": "Rangareddy", "DistrictGeo": "Rangareddy"}}, {"type": "Feature", "geometry": {"type": "Point", "coordinates": [78.88341, 18.01338]}, "properties": {"SchoolCode": "61727", "SchoolName": "TGSWREIS Kondapak(B)-SIDDIPET-(B)", "DistrictName": "Siddipet", "DistrictGeo": "Siddipet"}}, {"type": "Feature", "geometry": {"type": "Point", "coordinates": [78.3614475, 17.3947923]}, "properties": {"SchoolCode": "61502", "SchoolName": "TGSWREIS NARSINGI-RANGA REDDY (WEST)-(G) (COE)", "DistrictName": "Rangareddy", "DistrictGeo": "Rangareddy"}}, {"type": "Feature", "geometry": {"type": "Point", "coordinates": [78.875043, 17.980528]}, "properties": {"SchoolCode": "61728", "SchoolName": "TGSWREIS Jagdevpur(G)-SIDDIPET-(G)", "DistrictName": "Siddipet", "DistrictGeo": "Siddipet"}}, {"type": "Feature", "geometry": {"type": "Point", "coordinates": [78.295626, 17.348341]}, "properties": {"SchoolCode": "61503", "SchoolName": "TGSWREIS CHILKUR -RANGA REDDY (WEST)-(B) (COE)TGSWREIS CHILKUR -RANGA REDDY (WEST)-(B) (COE)", "DistrictName": "Rangareddy", "DistrictGeo": "Rangareddy"}}, {"type": "Feature", "geometry": {"type": "Point", "coordinates": [78.715026, 17.839632]}, "properties": {"SchoolCode": "61730", "SchoolName": "TGSWREIS Vargal(B)-SIDDIPET-(B)", "DistrictName": "Siddipet", "DistrictGeo": "Siddipet"}}, {"type": "Feature", "geometry": {"type": "Point", "coordinates": [78.647396, 17.197768]}, "properties": {"SchoolCode": "61504", "SchoolName": "TGSWREIS IBRAHIMPATNAM-RANGA REDDY (EAST)-(B) (COE", "DistrictName": "Rangareddy", "DistrictGeo": "Rangareddy"}}, {"type": "Feature", "geometry": {"type": "Point", "coordinates": [78.8254458, 18.2001668]}, "properties": {"SchoolCode": "61731", "SchoolName": "TGSWREIS Chinnakodur(B)-SIDDIPET-(B)", "DistrictName": "Siddipet", "DistrictGeo": "Siddipet"}}, {"type": "Feature", "geometry": {"type": "Point", "coordinates": [78.7711748, 18.0785146]}, "properties": {"SchoolCode": "61732", "SchoolName": "TGSWREIS Siddipet Rural(G)-SIDDIPET-(G)", "DistrictName": "Siddipet", "DistrictGeo": "Siddipet"}}, {"type": "Feature", "geometry": {"type": "Point", "coordinates": [78.6737034, 18.1531816]}, "properties": {"SchoolCode": "61724", "SchoolName": "TGSWREIS DUBBAK-SIDDIPET-(B)", "DistrictName": "Siddipet", "DistrictGeo": "Siddipet"}}, {"type": "Feature", "geometry": {"type": "Point", "coordinates": [78.884592, 18.083389]}, "properties": {"SchoolCode": "61733", "SchoolName": "TGSWREIS Siddipet-SIDDIPET-DEGREE", "DistrictName": "Siddipet", "DistrictGeo": "Siddipet"}}, {"type": "Feature", "geometry": {"type": "Point", "coordinates": [78.983404, 17.915614]}, "properties": {"SchoolCode": "52109", "SchoolName": "TGSWREIS CHERIAL-SIDDIPET-(B)", "DistrictName": "Siddipet", "DistrictGeo": "Siddipet"}}, {"type": "Feature", "geometry": {"type": "Point", "coordinates": [78.324369, 17.429558]}, "properties": {"SchoolCode": "61505", "SchoolName": "TGSWREIS GOWLIDODDI-RANGA REDDY (WEST)-(G) (COE)", "DistrictName": "Rangareddy", "DistrictGeo": "Rangareddy"}}, {"type": "Feature", "geometry": {"type": "Point", "coordinates": [78.668933, 17.205241]}, "properties": {"SchoolCode": "61510", "SchoolName": "TGSWREIS NALLAKANCHE -RANGA REDDY (EAST)-(G) (COE)", "DistrictName": "Rangareddy", "DistrictGeo": "Rangareddy"}}, {"type": "Feature", "geometry": {"type": "Point", "coordinates": [78.3209796, 17.4312472]}, "properties": {"SchoolCode": "61512", "SchoolName": "TGSWREIS GACHIBOWLI (NEW)-RANGA REDDY (EAST)-(B) (", "DistrictName": "Rangareddy", "DistrictGeo": "Rangareddy"}}, {"type": "Feature", "geometry": {"type": "Point", "coordinates": [78.533963, 17.367983]}, "properties": {"SchoolCode": "61527", "SchoolName": "TGSWREIS Ibrahimpatnam Degree college - Girls-RANG", "DistrictName": "Rangareddy", "DistrictGeo": "Rangareddy"}}]}